STARLINK-32741          
1 62526U 25004R   26068.41091689  .00027246  00000+0  99508-3 0  9996
2 62526  43.0005 218.1852 0001516 261.4176  98.6504 15.27609238 66458
FLOCK 4G-34             
1 62650U 25009AT  26068.73202491  .00013063  00000+0  49338-3 0  9997
2 62650  97.4004 151.0149 0000674 348.8280  11.2944 15.27131464 63729
